SOYUZ-MS 28             
1 66664U 25275A   25344.92875130  .00014434  00000+0  26509-3 0  9992
2 66664  51.6309 151.4463 0003351 232.8214 127.2469 15.49489378  2160
1998-067XS              
1 66906U 98067XS  25345.18243348  .00038814  00000+0  67409-3 0  9991
2 66906  51.6302 150.1407 0003747 195.2111 164.8766 15.50439588  1372
1998-067XT              
1 66907U 98067XT  25343.50529068  .00076342  00000+0  12921-2 0  9998
2 66907  51.6307 158.4423 0004803 208.5081 151.5646 15.50864429  1113
1998-067XU              
1 66908U 98067XU  25344.66485337  .00087912  00000+0  14714-2 0  9994
2 66908  51.6304 152.6848 0004812 213.5482 146.5203 15.51115637  1292
SILVERSAT               
1 66909U 98067XV  25344.72904365  .00091869  00000+0  15306-2 0  9993
2 66909  51.6307 152.3636 0004668 216.2554 143.8119 15.51224506  1301
1998-067XW              
1 66910U 98067XW  25344.47007597  .00083191  00000+0  13818-2 0  9993
2 66910  51.6299 153.6351 0005541 197.1967 162.8836 15.51350337  1261
1998-067XX              
1 66911U 98067XX  25345.17815372  .00098261  00000+0  16096-2 0  9995
2 66911  51.6299 150.1129 0005192 201.0739 159.0037 15.51664190  1368
1998-067XY              
1 66912U 98067XY  25344.73012555  .00067697  00000+0  11490-2 0  9991
2 66912  51.6309 152.3712 0004791 213.0974 146.9716 15.50838333  1293
